{
  "type": "FeatureCollection",
  "features": [
    {
      "type": "Feature",
      "properties": {
        "norad_id": 54259,
        "name": "EUTELSAT 10B",
        "group": "eutelsat",
        "lat": -0.04252806500880744,
        "lon": 22.488369133433224,
        "alt_km": 35785.062673321714,
        "timestamp": "2025-12-20T18:51:31.389364+00:00",
        "meta_object_name": "EUTELSAT 10B",
        "meta_object_id": "2022-157A",
        "meta_epoch": "2025-12-20T03:00:22.363776",
        "meta_mean_motion": 1.00274144,
        "meta_eccentricity": 6.752e-05,
        "meta_inclination": 0.0606,
        "meta_ra_of_asc_node": 97.5404,
        "meta_arg_of_pericenter": 8.9249,
        "meta_mean_anomaly": 37.5953,
        "meta_ephemeris_type": 0,
        "meta_classification_type": "U",
        "meta_norad_cat_id": 54259,
        "meta_element_set_no": 999,
        "meta_rev_at_epoch": 1123,
        "meta_bstar": 0,
        "meta_mean_motion_dot": 9.3e-07,
        "meta_mean_motion_ddot": 0,
        "tle_line1": "1 54259U 22157A   25354.12525884  .00000093  00000+0  00000+0 0  9996",
        "tle_line2": "2 54259   0.0606  97.5404 0000675   8.9249  37.5953  1.00274144 11230"
      },
      "geometry": {
        "type": "Point",
        "coordinates": [
          22.488369133433224,
          -0.04252806500880744
        ]
      }
    },
    {
      "type": "Feature",
      "properties": {
        "norad_id": 59346,
        "name": "EUTELSAT 36D",
        "group": "eutelsat",
        "lat": 0.028993332131646465,
        "lon": 48.33567851026431,
        "alt_km": 35783.714070638685,
        "timestamp": "2025-12-20T18:51:31.389375+00:00",
        "meta_object_name": "EUTELSAT 36D",
        "meta_object_id": "2024-059A",
        "meta_epoch": "2025-12-19T22:17:14.700768",
        "meta_mean_motion": 1.0027216,
        "meta_eccentricity": 6.505e-05,
        "meta_inclination": 0.0247,
        "meta_ra_of_asc_node": 22.0433,
        "meta_arg_of_pericenter": 347.9809,
        "meta_mean_anomaly": 88.8998,
        "meta_ephemeris_type": 0,
        "meta_classification_type": "U",
        "meta_norad_cat_id": 59346,
        "meta_element_set_no": 999,
        "meta_rev_at_epoch": 635,
        "meta_bstar": 0,
        "meta_mean_motion_dot": 0,
        "meta_mean_motion_ddot": 0,
        "tle_line1": "1 59346U 24059A   25353.92864237  .00000000  00000+0  00000+0 0  9994",
        "tle_line2": "2 59346   0.0247  22.0433 0000650 347.9809  88.8998  1.00272160  6350"
      },
      "geometry": {
        "type": "Point",
        "coordinates": [
          48.33567851026431,
          0.028993332131646465
        ]
      }
    }
  ]
}